CSS (TIANHE)            
1 48274U 21035A   24053.16663216  .00033400  00000+0  37119-3 0  9994
2 48274  41.4683  72.0270 0008697   0.0639   0.0200 15.62151725160935
